KUIPER-00250            
1 67155U 25301Y   26011.90263027  .00023713  00000+0  67098-3 0  9992
2 67155  51.8728 339.6549 0006513 175.6242 184.4803 15.36166700  5039
KUIPER-00251            
1 67156U 25301Z   26011.52396704  .00029937  00000+0  86669-3 0  9999
2 67156  51.8669 341.6073 0009107 187.4731 172.6120 15.35301373  5133
KUIPER-00252            
1 67157U 25301AA  26011.92235542  .00031198  00000+0  91166-3 0  9996
2 67157  51.8675 339.7737 0009943 198.6302 161.4321 15.34978676  5002
KUIPER-00261            
1 67158U 25301AB  26011.90182210  .00033344  00000+0  93662-3 0  9996
2 67158  51.8713 339.6484 0006560 171.6182 188.4915 15.36209557  5008
KUIPER-00265            
1 67159U 25301AC  26011.91667824 -.01326989  00000+0 -59462-1 0  9998
2 67159  51.8801 339.8305 0001645 173.5911 161.2436 15.23914041  5038
GALILEO 33              
1 67160U 25302A   25352.14605887 -.00000007  00000+0  00000+0 0  9994
2 67160  54.2406 107.2544 0008423 237.6458 122.2317  1.72906186    28
GALILEO B               
1 67161U 25302B   26011.42644868 -.00000033  00000+0  00000+0 0  9990
2 67161  54.2421 106.5099 0005083 260.1895  99.7577  1.72972425   450
GALILEO 33 (139)        
1 67162U 25302C   25356.18244914  .00000006  00000+0  00000+0 0  9992
2 67162  54.2447 107.1379 0000312 196.8367 159.4994  1.73130437   127
STARLINK-35755          
1 67163U 25303A   25351.60835648 -.00002699  85337-5  00000+0 0  9999
2 67163  43.0100  69.0834 0011500 323.6500   9.4800 16.01284782    10
STARLINK-36201          
1 67164U 25303B   25351.60835648 -.00002699  85337-5  00000+0 0  9990
2 67164  43.0100  69.0834 0011500 323.6500   9.4800 16.01284782    11
STARLINK-36186          
1 67165U 25303C   25351.60835648 -.00002699  85337-5  00000+0 0  9991
2 67165  43.0100  69.0834 0011500 323.6500   9.4800 16.01284782    12
STARLINK-36174          
1 67166U 25303D   25351.60835648 -.00002699  85337-5  00000+0 0  9992
2 67166  43.0100  69.0834 0011500 323.6500   9.4800 16.01284782    13
